{
  "type": "FeatureCollection",
  "features": [
    {
      "type": "Feature",
      "properties": {
        "norad_id": 34079,
        "name": "IRIDIUM 33 DEB",
        "group": "iridium-33-debris",
        "lat": -65.28795071755896,
        "lon": -160.54096697230074,
        "alt_km": 629.8161446478771,
        "timestamp": "2025-12-06T09:34:17.299258+00:00",
        "meta_object_name": "IRIDIUM 33 DEB",
        "meta_object_id": "1997-051CN",
        "meta_epoch": "2025-12-05T15:13:31.729728",
        "meta_mean_motion": 14.83252124,
        "meta_eccentricity": 0.00064252,
        "meta_inclination": 86.377,
        "meta_ra_of_asc_node": 11.8929,
        "meta_arg_of_pericenter": 29.6936,
        "meta_mean_anomaly": 96.726,
        "meta_ephemeris_type": 0,
        "meta_classification_type": "U",
        "meta_norad_cat_id": 34079,
        "meta_element_set_no": 999,
        "meta_rev_at_epoch": 88872,
        "meta_bstar": 0.0027520243,
        "meta_mean_motion_dot": 0.00022575,
        "meta_mean_motion_ddot": 0,
        "tle_line1": "1 34079U 97051CN  25339.63439502  .00022575  00000+0  27520-2 0  9997",
        "tle_line2": "2 34079  86.3770  11.8929 0006425  29.6936  96.7260 14.83252124888723"
      },
      "geometry": {
        "type": "Point",
        "coordinates": [
          -160.54096697230074,
          -65.28795071755896
        ]
      }
    },
    {
      "type": "Feature",
      "properties": {
        "norad_id": 34088,
        "name": "IRIDIUM 33 DEB",
        "group": "iridium-33-debris",
        "lat": 19.660892135140873,
        "lon": -147.65692018269033,
        "alt_km": 592.5593585865699,
        "timestamp": "2025-12-06T09:34:17.299268+00:00",
        "meta_object_name": "IRIDIUM 33 DEB",
        "meta_object_id": "1997-051CX",
        "meta_epoch": "2025-12-05T15:39:48.591072",
        "meta_mean_motion": 14.90862285,
        "meta_eccentricity": 0.00051464,
        "meta_inclination": 86.3855,
        "meta_ra_of_asc_node": 33.9796,
        "meta_arg_of_pericenter": 202.9719,
        "meta_mean_anomaly": 275.0833,
        "meta_ephemeris_type": 0,
        "meta_classification_type": "U",
        "meta_norad_cat_id": 34088,
        "meta_element_set_no": 999,
        "meta_rev_at_epoch": 88636,
        "meta_bstar": 0.0043568,
        "meta_mean_motion_dot": 0.00043158,
        "meta_mean_motion_ddot": 0,
        "tle_line1": "1 34088U 97051CX  25339.65264573  .00043158  00000+0  43568-2 0  9993",
        "tle_line2": "2 34088  86.3855  33.9796 0005146 202.9719 275.0833 14.90862285886367"
      },
      "geometry": {
        "type": "Point",
        "coordinates": [
          -147.65692018269033,
          19.660892135140873
        ]
      }
    },
    {
      "type": "Feature",
      "properties": {
        "norad_id": 34091,
        "name": "IRIDIUM 33 DEB",
        "group": "iridium-33-debris",
        "lat": -26.60733890588497,
        "lon": -108.42712705184316,
        "alt_km": 639.4134876246089,
        "timestamp": "2025-12-06T09:34:17.299278+00:00",
        "meta_object_name": "IRIDIUM 33 DEB",
        "meta_object_id": "1997-051DA",
        "meta_epoch": "2025-12-05T18:02:41.921376",
        "meta_mean_motion": 14.81003104,
        "meta_eccentricity": 0.00331885,
        "meta_inclination": 86.3427,
        "meta_ra_of_asc_node": 70.0326,
        "meta_arg_of_pericenter": 318.3177,
        "meta_mean_anomaly": 41.5515,
        "meta_ephemeris_type": 0,
        "meta_classification_type": "U",
        "meta_norad_cat_id": 34091,
        "meta_element_set_no": 999,
        "meta_rev_at_epoch": 87763,
        "meta_bstar": 0.0082623367,
        "meta_mean_motion_dot": 0.00065145,
        "meta_mean_motion_ddot": 0,
        "tle_line1": "1 34091U 97051DA  25339.75187409  .00065145  00000+0  82623-2 0  9995",
        "tle_line2": "2 34091  86.3427  70.0326 0033188 318.3177  41.5515 14.81003104877634"
      },
      "geometry": {
        "type": "Point",
        "coordinates": [
          -108.42712705184316,
          -26.60733890588497
        ]
      }
    },
    {
      "type": "Feature",
      "properties": {
        "norad_id": 34097,
        "name": "IRIDIUM 33 DEB",
        "group": "iridium-33-debris",
        "lat": 79.79264480819266,
        "lon": 25.868425421822486,
        "alt_km": 736.5531499094532,
        "timestamp": "2025-12-06T09:34:17.299288+00:00",
        "meta_object_name": "IRIDIUM 33 DEB",
        "meta_object_id": "1997-051DG",
        "meta_epoch": "2025-12-05T13:06:59.796288",
        "meta_mean_motion": 14.34691664,
        "meta_eccentricity": 0.00834078,
        "meta_inclination": 86.1999,
        "meta_ra_of_asc_node": 4.5829,
        "meta_arg_of_pericenter": 25.5737,
        "meta_mean_anomaly": 334.9547,
        "meta_ephemeris_type": 0,
        "meta_classification_type": "U",
        "meta_norad_cat_id": 34097,
        "meta_element_set_no": 999,
        "meta_rev_at_epoch": 87016,
        "meta_bstar": 0.0024289564,
        "meta_mean_motion_dot": 7.169e-05,
        "meta_mean_motion_ddot": 0,
        "tle_line1": "1 34097U 97051DG  25339.54652542  .00007169  00000+0  24290-2 0  9991",
        "tle_line2": "2 34097  86.1999   4.5829 0083407  25.5737 334.9547 14.34691664870167"
      },
      "geometry": {
        "type": "Point",
        "coordinates": [
          25.868425421822486,
          79.79264480819266
        ]
      }
    },
    {
      "type": "Feature",
      "properties": {
        "norad_id": 34145,
        "name": "IRIDIUM 33 DEB",
        "group": "iridium-33-debris",
        "lat": 1.6061703552846773,
        "lon": 155.24430802904695,
        "alt_km": 736.7319911523382,
        "timestamp": "2025-12-06T09:34:17.299299+00:00",
        "meta_object_name": "IRIDIUM 33 DEB",
        "meta_object_id": "1997-051DY",
        "meta_epoch": "2025-12-05T17:45:58.616928",
        "meta_mean_motion": 14.42213658,
        "meta_eccentricity": 0.00554485,
        "meta_inclination": 86.2109,
        "meta_ra_of_asc_node": 335.644,
        "meta_arg_of_pericenter": 116.0752,
        "meta_mean_anomaly": 244.6171,
        "meta_ephemeris_type": 0,
        "meta_classification_type": "U",
        "meta_norad_cat_id": 34145,
        "meta_element_set_no": 999,
        "meta_rev_at_epoch": 87537,
        "meta_bstar": 0.0019099545,
        "meta_mean_motion_dot": 6.43e-05,
        "meta_mean_motion_ddot": 0,
        "tle_line1": "1 34145U 97051DY  25339.74026177  .00006430  00000+0  19100-2 0  9990",
        "tle_line2": "2 34145  86.2109 335.6440 0055448 116.0752 244.6171 14.42213658875379"
      },
      "geometry": {
        "type": "Point",
        "coordinates": [
          155.24430802904695,
          1.6061703552846773
        ]
      }
    },
    {
      "type": "Feature",
      "properties": {
        "norad_id": 34146,
        "name": "IRIDIUM 33 DEB",
        "group": "iridium-33-debris",
        "lat": 21.300094725061822,
        "lon": -5.945971334481793,
        "alt_km": 741.9415678164187,
        "timestamp": "2025-12-06T09:34:17.299309+00:00",
        "meta_object_name": "IRIDIUM 33 DEB",
        "meta_object_id": "1997-051DZ",
        "meta_epoch": "2025-12-05T23:50:42.182592",
        "meta_mean_motion": 14.48976564,
        "meta_eccentricity": 0.0025058,
        "meta_inclination": 86.2832,
        "meta_ra_of_asc_node": 352.7807,
        "meta_arg_of_pericenter": 245.7386,
        "meta_mean_anomaly": 182.8661,
        "meta_ephemeris_type": 0,
        "meta_classification_type": "U",
        "meta_norad_cat_id": 34146,
        "meta_element_set_no": 999,
        "meta_rev_at_epoch": 88009,
        "meta_bstar": 0.0016475048,
        "meta_mean_motion_dot": 6.288e-05,
        "meta_mean_motion_ddot": 0,
        "tle_line1": "1 34146U 97051DZ  25339.99354378  .00006288  00000+0  16475-2 0  9998",
        "tle_line2": "2 34146  86.2832 352.7807 0025058 245.7386 182.8661 14.48976564880097"
      },
      "geometry": {
        "type": "Point",
        "coordinates": [
          -5.945971334481793,
          21.300094725061822
        ]
      }
    },
    {
      "type": "Feature",
      "properties": {
        "norad_id": 34159,
        "name": "IRIDIUM 33 DEB",
        "group": "iridium-33-debris",
        "lat": -23.7257064019681,
        "lon": 49.33822766042898,
        "alt_km": 752.2282324445314,
        "timestamp": "2025-12-06T09:34:17.299319+00:00",
        "meta_object_name": "IRIDIUM 33 DEB",
        "meta_object_id": "1997-051EN",
        "meta_epoch": "2025-12-05T15:19:00.661440",
        "meta_mean_motion": 14.38466769,
        "meta_eccentricity": 0.00263093,
        "meta_inclination": 86.3517,
        "meta_ra_of_asc_node": 51.2692,
        "meta_arg_of_pericenter": 312.8166,
        "meta_mean_anomaly": 47.082,
        "meta_ephemeris_type": 0,
        "meta_classification_type": "U",
        "meta_norad_cat_id": 34159,
        "meta_element_set_no": 999,
        "meta_rev_at_epoch": 87857,
        "meta_bstar": 0.00075266665,
        "meta_mean_motion_dot": 2.325e-05,
        "meta_mean_motion_ddot": 0,
        "tle_line1": "1 34159U 97051EN  25339.63820210  .00002325  00000+0  75267-3 0  9999",
        "tle_line2": "2 34159  86.3517  51.2692 0026309 312.8166  47.0820 14.38466769878576"
      },
      "geometry": {
        "type": "Point",
        "coordinates": [
          49.33822766042898,
          -23.7257064019681
        ]
      }
    }
  ]
}